start=new Date('2021-10-02T00:00:00.000Z').valueOf();
sats=[{"OBJECT_ID":"2021-027AB","SEMIMAJOR_AXIS":"6925.335","ARG_OF_PERICENTER":"61.2660","REV_AT_EPOCH":"2851","MEAN_MOTION_DDOT":"0.0000000000000","COUNTRY_CODE":"US","PERIOD":"95.592","PERIAPSIS":"546.244","RA_OF_ASC_NODE":"224.4746","MEAN_ANOMALY":"298.8468","OBJECT_TYPE":"PAYLOAD","MEAN_ELEMENT_THEORY":"SGP4","FILE":"3139397","MEAN_MOTION":"15.06404346","REF_FRAME":"TEME","CLASSIFICATION_TYPE":"U","GP_ID":"185961352","NORAD_CAT_ID":"48117","RCS_SIZE":"LARGE","LAUNCH_DATE":"2021-04-07","MEAN_MOTION_DOT":"0.00001162","CENTER_NAME":"EARTH","SITE":"AFETR","ECCENTRICITY":"0.00013810","TLE_LINE2":"2 48117  53.0548 224.4746 0001381  61.2660 298.8468 15.06404346 28515","APOAPSIS":"548.157","ELEMENT_SET_NO":"999","EPOCH":"2021-10-01T14:23:27.469536","OBJECT_NAME":"STARLINK-2455","DECAY_DATE":null,"TIME_SYSTEM":"UTC","BSTAR":"0.00009689900000","TLE_LINE1":"1 48117U 21027AB  21274.59962349  .00001162  00000-0  96899-4 0  9991","INCLINATION":"53.0548","EPHEMERIS_TYPE":"0"},{"PERIAPSIS":"546.133","RA_OF_ASC_NODE":"225.9119","OBJECT_ID":"2021-027AC","SEMIMAJOR_AXIS":"6925.351","ARG_OF_PERICENTER":"65.5071","REV_AT_EPOCH":"2846","COUNTRY_CODE":"US","MEAN_MOTION_DDOT":"0.0000000000000","PERIOD":"95.592","OBJECT_TYPE":"PAYLOAD","MEAN_ANOMALY":"294.6081","MEAN_ELEMENT_THEORY":"SGP4","FILE":"3138865","LAUNCH_DATE":"2021-04-07","MEAN_MOTION_DOT":"0.00000912","CENTER_NAME":"EARTH","SITE":"AFETR","ECCENTRICITY":"0.00015630","TLE_LINE2":"2 48118  53.0547 225.9119 0001563  65.5071 294.6081 15.06399362 28460","REF_FRAME":"TEME","MEAN_MOTION":"15.06399362","CLASSIFICATION_TYPE":"U","GP_ID":"185926968","NORAD_CAT_ID":"48118","RCS_SIZE":"LARGE","DECAY_DATE":null,"TIME_SYSTEM":"UTC","BSTAR":"0.00008010400000","TLE_LINE1":"1 48118U 21027AC  21274.27894739  .00000912  00000-0  80104-4 0  9998","INCLINATION":"53.0547","EPHEMERIS_TYPE":"0","APOAPSIS":"548.298","EPOCH":"2021-10-01T06:41:41.054496","ELEMENT_SET_NO":"999","OBJECT_NAME":"STARLINK-2458"},{"LAUNCH_DATE":"2021-04-07","MEAN_MOTION_DOT":"0.00002949","CENTER_NAME":"EARTH","SITE":"AFETR","TLE_LINE2":"2 48119  53.0546 223.2469 0001501  58.8064 301.3072 15.06410726 28541","ECCENTRICITY":"0.00015010","MEAN_MOTION":"15.06410726","REF_FRAME":"TEME","CLASSIFICATION_TYPE":"U","GP_ID":"185961846","NORAD_CAT_ID":"48119","RCS_SIZE":"LARGE","DECAY_DATE":null,"TIME_SYSTEM":"UTC","BSTAR":"0.00021671000000","INCLINATION":"53.0546","TLE_LINE1":"1 48119U 21027AD  21274.87238835  .00002949  00000-0  21671-3 0  9999","EPHEMERIS_TYPE":"0","APOAPSIS":"548.220","EPOCH":"2021-10-01T20:56:14.353440","ELEMENT_SET_NO":"999","OBJECT_NAME":"STARLINK-2459","PERIAPSIS":"546.141","RA_OF_ASC_NODE":"223.2469","OBJECT_ID":"2021-027AD","SEMIMAJOR_AXIS":"6925.316","ARG_OF_PERICENTER":"58.8064","REV_AT_EPOCH":"2854","MEAN_MOTION_DDOT":"0.0000000000000","COUNTRY_CODE":"US","PERIOD":"95.591","OBJECT_TYPE":"PAYLOAD","MEAN_ANOMALY":"301.3072","MEAN_ELEMENT_THEORY":"SGP4","FILE":"3139397"},{"PERIOD":"95.593","MEAN_MOTION_DDOT":"0.0000000000000","COUNTRY_CODE":"US","REV_AT_EPOCH":"2828","ARG_OF_PERICENTER":"57.5862","SEMIMAJOR_AXIS":"6925.374","OBJECT_ID":"2021-027AE","RA_OF_ASC_NODE":"243.2259","PERIAPSIS":"546.168","FILE":"3139397","MEAN_ELEMENT_THEORY":"SGP4","OBJECT_TYPE":"PAYLOAD","MEAN_ANOMALY":"302.5276","RCS_SIZE":"LARGE","NORAD_CAT_ID":"48120","GP_ID":"185962600","CLASSIFICATION_TYPE":"U","REF_FRAME":"TEME","MEAN_MOTION":"15.06391549","TLE_LINE2":"2 48120  53.0544 243.2259 0001547  57.5862 302.5276 15.06391549 28283","ECCENTRICITY":"0.00015470","SITE":"AFETR","MEAN_MOTION_DOT":"-0.00000237","CENTER_NAME":"EARTH","LAUNCH_DATE":"2021-04-07","OBJECT_NAME":"STARLINK-2460","EPOCH":"2021-10-01T21:04:12.135072","ELEMENT_SET_NO":"999","APOAPSIS":"548.311","EPHEMERIS_TYPE":"0","TLE_LINE1":"1 48120U 21027AE  21274.87791823 -.00000237  00000-0  29558-5 0  9995","INCLINATION":"53.0544","BSTAR":"0.00000295580000","TIME_SYSTEM":"UTC","DECAY_DATE":null},{"BSTAR":"-0.00000534420000","TIME_SYSTEM":"UTC","DECAY_DATE":null,"EPHEMERIS_TYPE":"0","TLE_LINE1":"1 48121U 21027AF  21274.58396265 -.00000361  00000-0 -53442-5 0  9993","INCLINATION":"53.0553","APOAPSIS":"548.088","OBJECT_NAME":"STARLINK-2462","EPOCH":"2021-10-01T14:00:54.372960","ELEMENT_SET_NO":"999","SITE":"AFETR","CENTER_NAME":"EARTH","MEAN_MOTION_DOT":"-0.00000361","LAUNCH_DATE":"2021-04-07","ECCENTRICITY":"0.00012140","TLE_LINE2":"2 48121  53.0553 234.5477 0001214  42.3057 317.8025 15.06388976 28368","MEAN_MOTION":"15.06388976","REF_FRAME":"TEME","RCS_SIZE":"LARGE","NORAD_CAT_ID":"48121","GP_ID":"185960852","CLASSIFICATION_TYPE":"U","MEAN_ANOMALY":"317.8025","OBJECT_TYPE":"PAYLOAD","FILE":"3139397","MEAN_ELEMENT_THEORY":"SGP4","PERIAPSIS":"546.407","RA_OF_ASC_NODE":"234.5477","REV_AT_EPOCH":"2836","ARG_OF_PERICENTER":"42.3057","OBJECT_ID":"2021-027AF","SEMIMAJOR_AXIS":"6925.382","PERIOD":"95.593","COUNTRY_CODE":"US","MEAN_MOTION_DDOT":"0.0000000000000"},{"MEAN_ELEMENT_THEORY":"SGP4","FILE":"3139397","OBJECT_TYPE":"PAYLOAD","MEAN_ANOMALY":"293.7289","RA_OF_ASC_NODE":"229.5391","PERIAPSIS":"546.291","MEAN_MOTION_DDOT":"0.0000000000000","COUNTRY_CODE":"US","PERIOD":"95.592","OBJECT_ID":"2021-027AG","SEMIMAJOR_AXIS":"6925.335","ARG_OF_PERICENTER":"66.3838","REV_AT_EPOCH":"2844","TLE_LINE1":"1 48122U 21027AG  21274.58531305  .00001169  00000-0  97324-4 0  9991","INCLINATION":"53.0553","EPHEMERIS_TYPE":"0","DECAY_DATE":null,"TIME_SYSTEM":"UTC","BSTAR":"0.00009732400000","ELEMENT_SET_NO":"999","EPOCH":"2021-10-01T14:02:51.047520","OBJECT_NAME":"STARLINK-2463","APOAPSIS":"548.110","ECCENTRICITY":"0.00013130","TLE_LINE2":"2 48122  53.0553 229.5391 0001313  66.3838 293.7289 15.06404352 28441","LAUNCH_DATE":"2021-04-07","CENTER_NAME":"EARTH","MEAN_MOTION_DOT":"0.00001169","SITE":"AFETR","CLASSIFICATION_TYPE":"U","GP_ID":"185961102","NORAD_CAT_ID":"48122","RCS_SIZE":"LARGE","MEAN_MOTION":"15.06404352","REF_FRAME":"TEME"},{"RCS_SIZE":"LARGE","NORAD_CAT_ID":"48123","GP_ID":"185962347","CLASSIFICATION_TYPE":"U","REF_FRAME":"TEME","MEAN_MOTION":"15.06397415","TLE_LINE2":"2 48123  53.0538 224.5057 0001464  59.8671 300.2463 15.06397415 28515","ECCENTRICITY":"0.00014640","SITE":"AFETR","MEAN_MOTION_DOT":"0.00001371","CENTER_NAME":"EARTH","LAUNCH_DATE":"2021-04-07","OBJECT_NAME":"STARLINK-2464","EPOCH":"2021-10-01T14:12:51.024672","ELEMENT_SET_NO":"999","APOAPSIS":"548.235","EPHEMERIS_TYPE":"0","TLE_LINE1":"1 48123U 21027AH  21274.59225723  .00001371  00000-0  11093-3 0  9990","INCLINATION":"53.0538","BSTAR":"0.00011093000000","TIME_SYSTEM":"UTC","DECAY_DATE":null,"PERIOD":"95.592","MEAN_MOTION_DDOT":"0.0000000000000","COUNTRY_CODE":"US","REV_AT_EPOCH":"2851","ARG_OF_PERICENTER":"59.8671","SEMIMAJOR_AXIS":"6925.356","OBJECT_ID":"2021-027AH","RA_OF_ASC_NODE":"224.5057","PERIAPSIS":"546.208","FILE":"3139397","MEAN_ELEMENT_THEORY":"SGP4","MEAN_ANOMALY":"300.2463","OBJECT_TYPE":"PAYLOAD"},{"TLE_LINE2":"2 48124  53.0559 233.3267 0001578  64.2496 295.8656 15.06426073 28405","ECCENTRICITY":"0.00015780","SITE":"AFETR","CENTER_NAME":"EARTH","MEAN_MOTION_DOT":"-0.00004794","LAUNCH_DATE":"2021-04-07","RCS_SIZE":"LARGE","GP_ID":"185962100","NORAD_CAT_ID":"48124","CLASSIFICATION_TYPE":"U","REF_FRAME":"TEME","MEAN_MOTION":"15.06426073","EPHEMERIS_TYPE":"0","TLE_LINE1":"1 48124U 21027AJ  21274.85671035 -.00004794  00000-0 -30295-3 0  9990","INCLINATION":"53.0559","BSTAR":"-0.00030295000000","TIME_SYSTEM":"UTC","DECAY_DATE":null,"OBJECT_NAME":"STARLINK-2465","ELEMENT_SET_NO":"999","EPOCH":"2021-10-01T20:33:39.774240","APOAPSIS":"548.226","RA_OF_ASC_NODE":"233.3267","PERIAPSIS":"546.041","PERIOD":"95.590","MEAN_MOTION_DDOT":"0.0000000000000","COUNTRY_CODE":"US","REV_AT_EPOCH":"2840","ARG_OF_PERICENTER":"64.2496","SEMIMAJOR_AXIS":"6925.269","OBJECT_ID":"2021-027AJ","FILE":"3139397","MEAN_ELEMENT_THEORY":"SGP4","MEAN_ANOMALY":"295.8656","OBJECT_TYPE":"PAYLOAD"},{"MEAN_MOTION":"15.06401058","REF_FRAME":"TEME","GP_ID":"185961353","NORAD_CAT_ID":"48125","CLASSIFICATION_TYPE":"U","RCS_SIZE":"LARGE","CENTER_NAME":"EARTH","MEAN_MOTION_DOT":"0.00000284","LAUNCH_DATE":"2021-04-07","SITE":"AFETR","ECCENTRICITY":"0.00009840","TLE_LINE2":"2 48125  53.0559 244.2566 0000984  62.8880 297.2210 15.06401058 28240","APOAPSIS":"547.892","ELEMENT_SET_NO":"999","EPOCH":"2021-10-01T15:33:45.005184","OBJECT_NAME":"STARLINK-2466","TIME_SYSTEM":"UTC","DECAY_DATE":null,"BSTAR":"0.00003791700000","TLE_LINE1":"1 48125U 21027AK  21274.64843756  .00000284  00000-0  37917-4 0  9996","INCLINATION":"53.0559","EPHEMERIS_TYPE":"0","ARG_OF_PERICENTER":"62.8880","SEMIMAJOR_AXIS":"6925.345","OBJECT_ID":"2021-027AK","REV_AT_EPOCH":"2824","PERIOD":"95.592","MEAN_MOTION_DDOT":"0.0000000000000","COUNTRY_CODE":"US","PERIAPSIS":"546.529","RA_OF_ASC_NODE":"244.2566","MEAN_ANOMALY":"297.2210","OBJECT_TYPE":"PAYLOAD","MEAN_ELEMENT_THEORY":"SGP4","FILE":"3139397"},{"PERIAPSIS":"546.201","RA_OF_ASC_NODE":"223.1893","REV_AT_EPOCH":"2856","OBJECT_ID":"2021-027AL","SEMIMAJOR_AXIS":"6925.377","ARG_OF_PERICENTER":"52.3644","COUNTRY_CODE":"US","MEAN_MOTION_DDOT":"0.0000000000000","PERIOD":"95.593","OBJECT_TYPE":"PAYLOAD","MEAN_ANOMALY":"307.7481","FILE":"3139397","MEAN_ELEMENT_THEORY":"SGP4","SITE":"AFETR","LAUNCH_DATE":"2021-04-07","MEAN_MOTION_DOT":"-0.00000287","CENTER_NAME":"EARTH","ECCENTRICITY":"0.00015030","TLE_LINE2":"2 48126  53.0497 223.1893 0001503  52.3644 307.7481 15.06390835 28563","MEAN_MOTION":"15.06390835","REF_FRAME":"TEME","RCS_SIZE":"LARGE","CLASSIFICATION_TYPE":"U","NORAD_CAT_ID":"48126","GP_ID":"185961603","BSTAR":"-0.00000036383000","DECAY_DATE":null,"TIME_SYSTEM":"UTC","EPHEMERIS_TYPE":"0","TLE_LINE1":"1 48126U 21027AL  21274.89082121 -.00000287  00000-0 -36383-6 0  9998","INCLINATION":"53.0497","APOAPSIS":"548.283","OBJECT_NAME":"STARLINK-2467","ELEMENT_SET_NO":"999","EPOCH":"2021-10-01T21:22:46.952544"}];
